{"type": "FeatureCollection", "features": [ {"type": "Feature", "properties": {"norad_id": 34833, "name": "IRIDIUM 33 DEB", "group": "iridium-33-debris", "lat": -86.33592097671729, "lon": -47.69991989534074, "alt_km": 740.1764071137914, "timestamp": "2025-12-09T21:34:11.794325+00:00", "meta": {"OBJECT_NAME": "IRIDIUM 33 DEB", "OBJECT_ID": "1997-051MH", "EPOCH": "2025-12-09T05:43:51.843072", "MEAN_MOTION": 14.52344467, "ECCENTRICITY": 0.0021797, "INCLINATION": 86.3929, "RA_OF_ASC_NODE": 52.5028, "ARG_OF_PERICENTER": 109.2817, "MEAN_ANOMALY": 311.6946, "EPHEMERIS_TYPE": 0, "CLASSIFICATION_TYPE": "U", "NORAD_CAT_ID": 34833, "ELEMENT_SET_NO": 999, "REV_AT_EPOCH": 87664, "BSTAR": 0.0011811, "MEAN_MOTION_DOT": 4.84e-05, "MEAN_MOTION_DDOT": 0}, "tle": {"line1": "1 34833U 97051MH  25343.23879448  .00004840  00000+0  11811-2 0  9994", "line2": "2 34833  86.3929  52.5028 0021797 109.2817 311.6946 14.52344467876647"}}, "geometry": {"type": "Point", "coordinates": [-47.69991989534074, -86.33592097671729]}}, {"type": "Feature", "properties": {"norad_id": 34870, "name": "IRIDIUM 33 DEB", "group": "iridium-33-debris", "lat": -4.015521755926586, "lon": -44.87523541604802, "alt_km": 654.8687411731198, "timestamp": "2025-12-09T21:34:11.794341+00:00", "meta": {"OBJECT_NAME": "IRIDIUM 33 DEB", "OBJECT_ID": "1997-051MQ", "EPOCH": "2025-12-07T16:41:29.147136", "MEAN_MOTION": 14.76272854, "ECCENTRICITY": 0.00154972, "INCLINATION": 86.3098, "RA_OF_ASC_NODE": 316.3932, "ARG_OF_PERICENTER": 201.8058, "MEAN_ANOMALY": 332.1989, "EPHEMERIS_TYPE": 0, "CLASSIFICATION_TYPE": "U", "NORAD_CAT_ID": 34870, "ELEMENT_SET_NO": 999, "REV_AT_EPOCH": 88836, "BSTAR": 0.0021061979, "MEAN_MOTION_DOT": 0.00014658, "MEAN_MOTION_DDOT": 0}, "tle": {"line1": "1 34870U 97051MQ  25341.69547624  .00014658  00000+0  21062-2 0  9998", "line2": "2 34870  86.3098 316.3932 0015497 201.8058 332.1989 14.76272854888369"}}, "geometry": {"type": "Point", "coordinates": [-44.87523541604802, -4.015521755926586]}}, {"type": "Feature", "properties": {"norad_id": 34896, "name": "IRIDIUM 33 DEB", "group": "iridium-33-debris", "lat": -58.99778156495853, "lon": -38.17338644657671, "alt_km": 676.1222669322642, "timestamp": "2025-12-09T21:34:11.794363+00:00", "meta": {"OBJECT_NAME": "IRIDIUM 33 DEB", "OBJECT_ID": "1997-051MY", "EPOCH": "2025-12-09T05:43:17.078304", "MEAN_MOTION": 14.66220489, "ECCENTRICITY": 0.0024034, "INCLINATION": 86.3293, "RA_OF_ASC_NODE": 328.2553, "ARG_OF_PERICENTER": 227.4371, "MEAN_ANOMALY": 189.808, "EPHEMERIS_TYPE": 0, "CLASSIFICATION_TYPE": "U", "NORAD_CAT_ID": 34896, "ELEMENT_SET_NO": 999, "REV_AT_EPOCH": 87568, "BSTAR": 0.0013765, "MEAN_MOTION_DOT": 7.633e-05, "MEAN_MOTION_DDOT": 0}, "tle": {"line1": "1 34896U 97051MY  25343.23839211  .00007633  00000+0  13765-2 0  9990", "line2": "2 34896  86.3293 328.2553 0024034 227.4371 189.8080 14.66220489875680"}}, "geometry": {"type": "Point", "coordinates": [-38.17338644657671, -58.99778156495853]}}, {"type": "Feature", "properties": {"norad_id": 34926, "name": "IRIDIUM 33 DEB", "group": "iridium-33-debris", "lat": 31.099636945664944, "lon": -172.7490208223217, "alt_km": 758.67085786406, "timestamp": "2025-12-09T21:34:11.794381+00:00", "meta": {"OBJECT_NAME": "IRIDIUM 33 DEB", "OBJECT_ID": "1997-051NF", "EPOCH": "2025-12-09T03:00:38.009952", "MEAN_MOTION": 14.54144924, "ECCENTRICITY": 0.00760026, "INCLINATION": 86.1319, "RA_OF_ASC_NODE": 9.9484, "ARG_OF_PERICENTER": 305.1684, "MEAN_ANOMALY": 118.2748, "EPHEMERIS_TYPE": 0, "CLASSIFICATION_TYPE": "U", "NORAD_CAT_ID": 34926, "ELEMENT_SET_NO": 999, "REV_AT_EPOCH": 86404, "BSTAR": 0.0063092717, "MEAN_MOTION_DOT": 0.00027819, "MEAN_MOTION_DDOT": 0}, "tle": {"line1": "1 34926U 97051NF  25343.12543993  .00027819  00000+0  63093-2 0  9998", "line2": "2 34926  86.1319   9.9484 0076002 305.1684 118.2748 14.54144924864041"}}, "geometry": {"type": "Point", "coordinates": [-172.7490208223217, 31.099636945664944]}}, {"type": "Feature", "properties": {"norad_id": 34985, "name": "IRIDIUM 33 DEB", "group": "iridium-33-debris", "lat": 39.727164952619454, "lon": 61.1158521635853, "alt_km": 763.2820054388167, "timestamp": "2025-12-09T21:34:11.794403+00:00", "meta": {"OBJECT_NAME": "IRIDIUM 33 DEB", "OBJECT_ID": "1997-051NR", "EPOCH": "2025-12-09T11:29:05.215776", "MEAN_MOTION": 14.41988127, "ECCENTRICITY": 0.00203885, "INCLINATION": 86.3692, "RA_OF_ASC_NODE": 58.2704, "ARG_OF_PERICENTER": 230.9177, "MEAN_ANOMALY": 148.9358, "EPHEMERIS_TYPE": 0, "CLASSIFICATION_TYPE": "U", "NORAD_CAT_ID": 34985, "ELEMENT_SET_NO": 999, "REV_AT_EPOCH": 87128, "BSTAR": 0.0011381521, "MEAN_MOTION_DOT": 3.759e-05, "MEAN_MOTION_DDOT": 0}, "tle": {"line1": "1 34985U 97051NR  25343.47853259  .00003759  00000+0  11382-2 0  9991", "line2": "2 34985  86.3692  58.2704 0020388 230.9177 148.9358 14.41988127871280"}}, "geometry": {"type": "Point", "coordinates": [61.1158521635853, 39.727164952619454]}}, {"type": "Feature", "properties": {"norad_id": 35051, "name": "IRIDIUM 33 DEB", "group": "iridium-33-debris", "lat": -83.35145385625295, "lon": -23.370414991979562, "alt_km": 748.5893359292941, "timestamp": "2025-12-09T21:34:11.794419+00:00", "meta": {"OBJECT_NAME": "IRIDIUM 33 DEB", "OBJECT_ID": "1997-051NX", "EPOCH": "2025-12-09T08:41:17.541312", "MEAN_MOTION": 14.47575275, "ECCENTRICITY": 0.00106574, "INCLINATION": 86.3242, "RA_OF_ASC_NODE": 10.3338, "ARG_OF_PERICENTER": 100.3191, "MEAN_ANOMALY": 259.9214, "EPHEMERIS_TYPE": 0, "CLASSIFICATION_TYPE": "U", "NORAD_CAT_ID": 35051, "ELEMENT_SET_NO": 999, "REV_AT_EPOCH": 86947, "BSTAR": 0.0010277257, "MEAN_MOTION_DOT": 3.803e-05, "MEAN_MOTION_DDOT": 0}, "tle": {"line1": "1 35051U 97051NX  25343.36200858  .00003803  00000+0  10277-2 0  9997", "line2": "2 35051  86.3242  10.3338 0010657 100.3191 259.9214 14.47575275869476"}}, "geometry": {"type": "Point", "coordinates": [-23.370414991979562, -83.35145385625295]}}, {"type": "Feature", "properties": {"norad_id": 35052, "name": "IRIDIUM 33 DEB", "group": "iridium-33-debris", "lat": 22.079248023643654, "lon": -159.79690733348428, "alt_km": 759.1762655336634, "timestamp": "2025-12-09T21:34:11.794435+00:00", "meta": {"OBJECT_NAME": "IRIDIUM 33 DEB", "OBJECT_ID": "1997-051NY", "EPOCH": "2025-12-09T09:09:14.071104", "MEAN_MOTION": 14.38486944, "ECCENTRICITY": 0.00136896, "INCLINATION": 86.3313, "RA_OF_ASC_NODE": 21.9161, "ARG_OF_PERICENTER": 94.3861, "MEAN_ANOMALY": 265.8902, "EPHEMERIS_TYPE": 0, "CLASSIFICATION_TYPE": "U", "NORAD_CAT_ID": 35052, "ELEMENT_SET_NO": 999, "REV_AT_EPOCH": 87227, "BSTAR": 0.00032817841, "MEAN_MOTION_DOT": 1.023e-05, "MEAN_MOTION_DDOT": 0}, "tle": {"line1": "1 35052U 97051NY  25343.38141286  .00001023  00000+0  32818-3 0  9997", "line2": "2 35052  86.3313  21.9161 0013689  94.3861 265.8902 14.38486944872278"}}, "geometry": {"type": "Point", "coordinates": [-159.79690733348428, 22.079248023643654]}}, {"type": "Feature", "properties": {"norad_id": 35080, "name": "IRIDIUM 33 DEB", "group": "iridium-33-debris", "lat": -29.82439555023264, "lon": -124.08640272280913, "alt_km": 577.7392089733048, "timestamp": "2025-12-09T21:34:11.794451+00:00", "meta": {"OBJECT_NAME": "IRIDIUM 33 DEB", "OBJECT_ID": "1997-051PF", "EPOCH": "2025-12-09T10:55:41.938464", "MEAN_MOTION": 14.85397119, "ECCENTRICITY": 0.00616418, "INCLINATION": 86.2064, "RA_OF_ASC_NODE": 53.9454, "ARG_OF_PERICENTER": 191.0106, "MEAN_ANOMALY": 168.9774, "EPHEMERIS_TYPE": 0, "CLASSIFICATION_TYPE": "U", "NORAD_CAT_ID": 35080, "ELEMENT_SET_NO": 999, "REV_AT_EPOCH": 69639, "BSTAR": 0.010046072, "MEAN_MOTION_DOT": 0.00090518, "MEAN_MOTION_DDOT": 0}, "tle": {"line1": "1 35080U 97051PF  25343.45534651  .00090518  00000+0  10046-1 0  9992", "line2": "2 35080  86.2064  53.9454 0061641 191.0106 168.9774 14.85397119696393"}}, "geometry": {"type": "Point", "coordinates": [-124.08640272280913, -29.82439555023264]}}, {"type": "Feature", "properties": {"norad_id": 35297, "name": "IRIDIUM 33 DEB", "group": "iridium-33-debris", "lat": -3.6145810701796757, "lon": 63.74423658665467, "alt_km": 755.7776063587999, "timestamp": "2025-12-09T21:34:11.794491+00:00", "meta": {"OBJECT_NAME": "IRIDIUM 33 DEB", "OBJECT_ID": "1997-051PM", "EPOCH": "2025-12-06T00:31:29.302752", "MEAN_MOTION": 14.45108459, "ECCENTRICITY": 0.00170329, "INCLINATION": 86.3867, "RA_OF_ASC_NODE": 65.6268, "ARG_OF_PERICENTER": 161.2449, "MEAN_ANOMALY": 198.9384, "EPHEMERIS_TYPE": 0, "CLASSIFICATION_TYPE": "U", "NORAD_CAT_ID": 35297, "ELEMENT_SET_NO": 999, "REV_AT_EPOCH": 70329, "BSTAR": 0.0012426888, "MEAN_MOTION_DOT": 4.371e-05, "MEAN_MOTION_DDOT": 0}, "tle": {"line1": "1 35297U 97051PM  25340.02186693  .00004371  00000+0  12427-2 0  9999", "line2": "2 35297  86.3867  65.6268 0017032 161.2449 198.9384 14.45108459703293"}}, "geometry": {"type": "Point", "coordinates": [63.74423658665467, -3.6145810701796757]}}, {"type": "Feature", "properties": {"norad_id": 35299, "name": "IRIDIUM 33 DEB", "group": "iridium-33-debris", "lat": -27.223796115109756, "lon": 32.50923900696685, "alt_km": 792.9432127686632, "timestamp": "2025-12-09T21:34:11.794509+00:00", "meta": {"OBJECT_NAME": "IRIDIUM 33 DEB", "OBJECT_ID": "1997-051PP", "EPOCH": "2025-12-09T03:37:25.282848", "MEAN_MOTION": 14.40832112, "ECCENTRICITY": 0.00588898, "INCLINATION": 86.2882, "RA_OF_ASC_NODE": 34.7485, "ARG_OF_PERICENTER": 113.8076, "MEAN_ANOMALY": 303.2931, "EPHEMERIS_TYPE": 0, "CLASSIFICATION_TYPE": "U", "NORAD_CAT_ID": 35299, "ELEMENT_SET_NO": 999, "REV_AT_EPOCH": 86279, "BSTAR": 0.00094086001, "MEAN_MOTION_DOT": 3.095e-05, "MEAN_MOTION_DDOT": 0}, "tle": {"line1": "1 35299U 97051PP  25343.15098707  .00003095  00000+0  94086-3 0  9990", "line2": "2 35299  86.2882  34.7485 0058889 113.8076 303.2931 14.40832112862798"}}, "geometry": {"type": "Point", "coordinates": [32.50923900696685, -27.223796115109756]}}]}